{
    "links": {
        "self": "http://www.neowsapp.com/rest/v1/neo/3398131?api_key=iIulBulltgU6a56xZRHN4H3l9WmuAYTsLGpBGhQ2"
    },
    "id": "3398131",
    "neo_reference_id": "3398131",
    "name": "(2007 YH1)",
    "designation": "2007 YH1",
    "nasa_jpl_url": "http://ssd.jpl.nasa.gov/sbdb.cgi?sstr=3398131",
    "absolute_magnitude_h": 25.0,
    "estimated_diameter": {
        "kilometers": {
            "estimated_diameter_min": 0.02658,
            "estimated_diameter_max": 0.0594346868
        },
        "meters": {
            "estimated_diameter_min": 26.58,
            "estimated_diameter_max": 59.4346868419
        },
        "miles": {
            "estimated_diameter_min": 0.0165160412,
            "estimated_diameter_max": 0.0369309908
        },
        "feet": {
            "estimated_diameter_min": 87.2047272,
            "estimated_diameter_max": 194.9956979785
        }
    },
    "is_potentially_hazardous_asteroid": false,
    "close_approach_data": [
        {
            "close_approach_date": "2007-12-29",
            "close_approach_date_full": "2007-Dec-29 01:24",
            "epoch_date_close_approach": 1198891440000,
            "relative_velocity": {
                "kilometers_per_second": "12.6269080163",
                "kilometers_per_hour": "45456.8688586073",
                "miles_per_hour": "28245.1305416163"
            },
            "miss_distance": {
                "astronomical": "0.0657683894",
                "lunar": "25.5839034766",
                "kilometers": "9838810.967570578",
                "miles": "6113553.6459988564"
            },
            "orbiting_body": "Earth"
        }
    ],
    "orbital_data": {
        "orbit_id": "6",
        "orbit_determination_date": "2017-04-06 09:04:52",
        "first_observation_date": "2007-12-17",
        "last_observation_date": "2007-12-18",
        "data_arc_in_days": 1,
        "observations_used": 11,
        "orbit_uncertainty": "9",
        "minimum_orbit_intersection": ".0296625",
        "jupiter_tisserand_invariant": "3.561",
        "epoch_osculation": "2454452.5",
        "eccentricity": ".5622706413761839",
        "semi_major_axis": "2.064174245997664",
        "inclination": "3.185243699645494",
        "ascending_node_longitude": "72.08218605759029",
        "orbital_period": "1083.223216726131",
        "perihelion_distance": ".903549668788357",
        "perihelion_argument": "72.57388144311712",
        "aphelion_distance": "3.224798823206972",
        "perihelion_time": "2454497.098190530881",
        "mean_anomaly": "345.1781716425522",
        "mean_motion": ".332341473521997",
        "equinox": "J2000",
        "orbit_class": {
            "orbit_class_type": "APO",
            "orbit_class_description": "Near-Earth asteroid orbits which cross the Earth’s orbit similar to that of 1862 Apollo",
            "orbit_class_range": "a (semi-major axis) > 1.0 AU; q (perihelion) < 1.017 AU"
        }
    },
    "is_sentry_object": false
}